NORAD_CAT_ID,OBJECT_NAME,OBJECT_TYPE,EPOCH,MEAN_MOTION,ECCENTRICITY,INCLINATION,RA_OF_ASC_NODE,ARG_OF_PERICENTER,MEAN_ANOMALY,BSTAR,MEAN_MOTION_DOT,MEAN_MOTION_DDOT,TLE_LINE0,TLE_LINE1,TLE_LINE2,SEMIMAJOR_AXIS,PERIOD,APOGEE,PERIGEE,DECAYED
52298.0,STARLINK-3760,PAYLOAD,2022-11-01 02:02:05,15.08833267,0.0001928,53.2195,196.5881,44.7666,315.3482,-3.1932e-05,-7.96e-06,0.0,0 STARLINK-3760,1 52298U 22041AP  22305.08478836 -.00000796  00000-0 -31932-4 0  9997,2 52298  53.2195 196.5881 0001928  44.7666 315.3482 15.08833267 30848,6917.901,95.438,541.1,538.432,0.0
52298.0,STARLINK-3760,PAYLOAD,2022-11-01 09:59:01,15.08828738,0.0001953,53.2196,195.1015,47.7174,312.3984,7.626e-05,9.25e-06,0.0,0 STARLINK-3760,1 52298U 22041AP  22305.41599012  .00000925  00000-0  76260-4 0  9999,2 52298  53.2196 195.1015 0001953  47.7174 312.3984 15.08828738 29689,6917.915,95.438,541.131,538.429,0.0
52298.0,STARLINK-3760,PAYLOAD,2022-11-01 16:20:34,15.08834842,0.0001950999999999,53.2194,193.912,48.2978,311.8181,9.4764e-06,-1.37e-06,0.0,0 STARLINK-3760,1 52298U 22041AP  22305.68094941 -.00000137  00000-0  94764-5 0  9995,2 52298  53.2194 193.9120 0001951  48.2978 311.8181 15.08834842 29727,6917.896,95.438,541.111,538.411,0.0
52298.0,STARLINK-3760,PAYLOAD,2022-11-02 09:49:48,15.08834436,0.0002070999999999,53.2187,190.6414,49.792,310.3254,3.1927e-06,-2.37e-06,0.0,0 STARLINK-3760,1 52298U 22041AP  22306.40959156 -.00000237  00000-0  31927-5 0  9997,2 52298  53.2187 190.6414 0002071  49.7920 310.3254 15.08834436 29832,6917.897,95.438,541.195,538.33,0.0
52298.0,STARLINK-3760,PAYLOAD,2022-11-03 09:40:35,15.08842093,0.0001988,53.2201,186.1805,52.1583,307.9589,0.00010813,1.433e-05,0.0,0 STARLINK-3760,1 52298U 22041AP  22307.40318787  .00001433  00000-0  10813-3 0  9994,2 52298  53.2201 186.1805 0001988  52.1583 307.9589 15.08842093 31195,6917.874,95.437,541.114,538.364,0.0
52298.0,STARLINK-3760,PAYLOAD,2022-11-04 01:34:25,15.08853353,0.0001724,53.2185,183.2063,52.5739,307.541,0.00011067,1.474e-05,0.0,0 STARLINK-3760,1 52298U 22041AP  22308.06557790  .00001474  00000-0  11067-3 0  9993,2 52298  53.2185 183.2063 0001724  52.5739 307.5410 15.08853353 31296,6917.84,95.437,540.8969999999998,538.512,0.0
52298.0,STARLINK-3760,PAYLOAD,2022-11-04 15:52:55,15.08800051,0.0001653,53.2185,180.5325,49.3397,310.7739,0.00075114,0.00011674,0.0,0 STARLINK-3760,1 52298U 22041AP  22308.66175123  .00011674  00000-0  75114-3 0  9991,2 52298  53.2185 180.5325 0001653  49.3397 310.7739 15.08800051 31389,6918.002,95.44,541.011,538.724,0.0
52298.0,STARLINK-3760,PAYLOAD,2022-11-05 01:25:14,15.08805557,0.0001867,53.2195,178.7451,46.8088,313.306,0.00027918,4.154e-05,0.0,0 STARLINK-3760,1 52298U 22041AP  22309.05919989  .00004154  00000-0  27918-3 0  9995,2 52298  53.2195 178.7451 0001867  46.8088 313.3060 15.08805557 30230,6917.986,95.44,541.1419999999998,538.559,0.0
52298.0,STARLINK-3760,PAYLOAD,2022-11-05 15:43:43,15.08826744,0.0001625,53.2187,176.0683,51.2695,308.8443,-0.00018286,-3.196e-05,0.0,0 STARLINK-3760,1 52298U 22041AP  22309.65536659 -.00003196  00000-0 -18286-3 0  9995,2 52298  53.2187 176.0683 0001625  51.2695 308.8443 15.08826744 30320,6917.920999999999,95.438,540.91,538.6619999999998,0.0
52298.0,STARLINK-3760,PAYLOAD,2022-11-06 01:16:03,15.08824627,0.0001801,53.2191,174.2854,44.9776,315.1362,-0.00023204,-3.978e-05,0.0,0 STARLINK-3760,1 52298U 22041AP  22310.05281363 -.00003978  00000-0 -23204-3 0  9994,2 52298  53.2191 174.2854 0001801  44.9776 315.1362 15.08824627 31599,6917.927,95.439,541.038,538.5459999999998,0.0
52298.0,STARLINK-3760,PAYLOAD,2022-11-06 18:45:17,15.08819185,0.0001821,53.2186,171.016,44.3495,315.7643,4.4676e-05,4.23e-06,0.0,0 STARLINK-3760,1 52298U 22041AP  22310.78145447  .00000423  00000-0  44676-4 0  9993,2 52298  53.2186 171.0160 0001821  44.3495 315.7643 15.08819185 31706,6917.944,95.439,541.069,538.549,0.0
52298.0,STARLINK-3760,PAYLOAD,2022-11-07 02:42:13,15.08826284,0.0001926,53.2191,169.5292,47.1213,312.994,9.7834e-05,1.269e-05,0.0,0 STARLINK-3760,1 52298U 22041AP  22311.11265282  .00001269  00000-0  97834-4 0  9994,2 52298  53.2191 169.5292 0001926  47.1213 312.9940 15.08826284 31757,6917.922,95.438,541.12,538.455,0.0
52298.0,STARLINK-3760,PAYLOAD,2022-11-07 15:25:17,15.08821691,0.0001977,53.2191,167.1501,46.4441,313.6716,0.00044825,6.849e-05,0.0,0 STARLINK-3760,1 52298U 22041AP  22311.64256710  .00006849  00000-0  44825-3 0  9998,2 52298  53.2191 167.1501 0001977  46.4441 313.6716 15.08821691 31830,6917.936,95.439,541.169,538.434,0.0
52298.0,STARLINK-3760,PAYLOAD,2022-11-08 07:19:08,15.0884347,0.0001967,53.2188,164.1765,47.9451,312.1709,0.00031359,4.707e-05,0.0,0 STARLINK-3760,1 52298U 22041AP  22312.30496113  .00004707  00000-0  31359-3 0  9994,2 52298  53.2188 164.1765 0001967  47.9451 312.1709 15.08843470 31937,6917.87,95.437,541.096,538.374,0.0
52298.0,STARLINK-3760,PAYLOAD,2022-11-09 07:09:54,15.08852913,0.0001902,53.2186,159.7165,49.3307,310.7851,0.00012959,1.776e-05,0.0,0 STARLINK-3760,1 52298U 22041AP  22313.29855211  .00001776  00000-0  12959-3 0  9999,2 52298  53.2186 159.7165 0001902  49.3307 310.7851 15.08852913 30870,6917.840999999999,95.437,541.0219999999998,538.39,0.0
52298.0,STARLINK-3760,PAYLOAD,2022-11-09 19:53:02,15.08830368,0.000172,53.2187,157.3378,49.5834,310.5308,-0.00022219,-3.822e-05,0.0,0 STARLINK-3760,1 52298U 22041AP  22313.82849566 -.00003822  00000-0 -22219-3 0  9990,2 52298  53.2187 157.3378 0001720  49.5834 310.5308 15.08830368 32165,6917.91,95.438,540.965,538.585,0.0
52298.0,STARLINK-3760,PAYLOAD,2022-11-09 21:28:25,15.08828022,0.0001705,53.2186,157.0405,47.6841,312.4295,-0.00023946,-4.096e-05,0.0,0 STARLINK-3760,1 52298U 22041AP  22313.89473772 -.00004096  00000-0 -23946-3 0  9991,2 52298  53.2186 157.0405 0001705  47.6841 312.4295 15.08828022 30968,6917.917,95.438,540.962,538.602,0.0
52298.0,STARLINK-3760,PAYLOAD,2022-11-10 00:39:12,15.08822252,0.0001705,53.2189,156.4462,46.1582,313.9551,-0.00028265,-4.781e-05,0.0,0 STARLINK-3760,1 52298U 22041AP  22314.02722328 -.00004781  00000-0 -28265-3 0  9991,2 52298  53.2189 156.4462 0001705  46.1582 313.9551 15.08822252 32190,6917.935,95.439,540.979,538.62,0.0
52298.0,STARLINK-3760,PAYLOAD,2022-11-10 13:22:16,15.08833518,0.0001761,53.2177,154.067,46.4446,313.6692,-0.00016704,-2.945e-05,0.0,0 STARLINK-3760,1 52298U 22041AP  22314.55713433 -.00002945  00000-0 -16704-3 0  9991,2 52298  53.2177 154.0670 0001761  46.4446 313.6692 15.08833518 31061,6917.9,95.438,540.9830000000002,538.547,0.0
52298.0,STARLINK-3760,PAYLOAD,2022-11-10 18:08:25,15.08837097,0.0001663,53.2169,153.1751,45.1869,314.9258,-0.00016249,-2.873e-05,0.0,0 STARLINK-3760,1 52298U 22041AP  22314.75585171 -.00002873  00000-0 -16249-3 0  9993,2 52298  53.2169 153.1751 0001663  45.1869 314.9258 15.08837097 32304,6917.889,95.438,540.905,538.604,0.0
52298.0,STARLINK-3760,PAYLOAD,2022-11-10 19:43:48,15.08831057,0.0002087,53.2198,152.879,52.1525,307.9656,-7.7189e-05,-1.516e-05,0.0,0 STARLINK-3760,1 52298U 22041AP  22314.82209452 -.00001516  00000-0 -77189-4 0  9990,2 52298  53.2198 152.8790 0002087  52.1525 307.9656 15.08831057 31104,6917.908,95.438,541.216,538.3290000000002,0.0
52298.0,STARLINK-3760,PAYLOAD,2022-11-11 19:34:36,15.08819482,0.0001795,53.2192,148.4183,45.5427,314.5711,0.00025564,3.781e-05,0.0,0 STARLINK-3760,1 52298U 22041AP  22315.81569900  .00003781  00000-0  25564-3 0  9990,2 52298  53.2192 148.4183 0001795  45.5427 314.5711 15.08819482 32461,6917.943,95.439,541.05,538.566,0.0
52298.0,STARLINK-3760,PAYLOAD,2022-11-12 13:03:50,15.08836383,0.0001788,53.2188,145.1476,42.358,317.755,0.00020424,2.964e-05,0.0,0 STARLINK-3760,1 52298U 22041AP  22316.54433674  .00002964  00000-0  20424-3 0  9991,2 52298  53.2188 145.1476 0001788  42.3580 317.7550 15.08836383 32579,6917.891,95.438,540.993,538.52,0.0
52298.0,STARLINK-3760,PAYLOAD,2022-11-12 19:25:23,15.0884363,0.000179,53.2191,143.958,45.1289,314.9848,0.00020167,2.923e-05,0.0,0 STARLINK-3760,1 52298U 22041AP  22316.80929403  .00002923  00000-0  20167-3 0  9999,2 52298  53.2191 143.9580 0001790  45.1289 314.9848 15.08843630 31408,6917.869000000002,95.437,540.9730000000002,538.496,0.0
52298.0,STARLINK-3760,PAYLOAD,2022-11-12 22:36:09,15.0884451,0.0001805,53.2191,143.3633,45.4648,314.6491,0.00020569,2.987e-05,0.0,0 STARLINK-3760,1 52298U 22041AP  22316.94177342  .00002987  00000-0  20569-3 0  9997,2 52298  53.2191 143.3633 0001805  45.4648 314.6491 15.08844510 31421,6917.8669999999975,95.437,540.98,538.4830000000002,0.0
52298.0,STARLINK-3760,PAYLOAD,2022-11-13 19:16:10,15.08841005,0.0001798,53.2188,139.4974,44.3508,315.7627,5.2024e-05,5.400000000000002e-06,0.0,0 STARLINK-3760,1 52298U 22041AP  22317.80289730  .00000540  00000-0  52024-4 0  9993,2 52298  53.2188 139.4974 0001798  44.3508 315.7627 15.08841005 32762,6917.877,95.437,540.986,538.498,0.0
52298.0,STARLINK-3760,PAYLOAD,2022-11-14 11:10:01,15.08846188,0.0001833,53.2186,136.5234,43.5088,316.6048,7.2832e-05,8.71e-06,0.0,0 STARLINK-3760,1 52298U 22041AP  22318.46529149  .00000871  00000-0  72832-4 0  9993,2 52298  53.2186 136.5234 0001833  43.5088 316.6048 15.08846188 31652,6917.861,95.437,540.995,538.4580000000002,0.0
52298.0,STARLINK-3760,PAYLOAD,2022-11-14 19:06:56,15.08850397,0.0001849,53.2186,135.0366,43.7863,316.3276,4.4178e-05,4.15e-06,0.0,0 STARLINK-3760,1 52298U 22041AP  22318.79648738  .00000415  00000-0  44178-4 0  9991,2 52298  53.2186 135.0366 0001849  43.7863 316.3276 15.08850397 32919,6917.849,95.437,540.993,538.434,0.0
52298.0,STARLINK-3760,PAYLOAD,2022-11-15 04:39:16,15.08836699,0.0002039,53.219,133.2527,46.7414,313.3748,-8.526e-05,-1.645e-05,0.0,0 STARLINK-3760,1 52298U 22041AP  22319.19393886 -.00001645  00000-0 -85260-4 0  9992,2 52298  53.2190 133.2527 0002039  46.7414 313.3748 15.08836699 32976,6917.89,95.438,541.1659999999998,538.345,0.0
